{"type":"FeatureCollection","features":[{"type":"Feature","id":1,"geometry":{"type":"Point","coordinates":[-77.614326916251457,37.69482797282955]},"properties":{"OBJECTID":1,"LEVEL_":"Elementary","SCHOOL_":710,"LABEL":"Shady Grove Elementary School","MAPNUMBER":52,"NAME_":"SHADY GROVE"}},{"type":"Feature","id":2,"geometry":{"type":"Point","coordinates":[-77.599632594501415,37.672417758888855]},"properties":{"OBJECTID":2,"LEVEL_":"Elementary","SCHOOL_":310,"LABEL":"Twin Hickory Elementary School","MAPNUMBER":62,"NAME_":"TWIN HICKORY"}},{"type":"Feature","id":3,"geometry":{"type":"Point","coordinates":[-77.639120200007909,37.655817833987491]},"properties":{"OBJECTID":3,"LEVEL_":"Elementary","SCHOOL_":270,"LABEL":"Nuckols Farm Elementary School","MAPNUMBER":42,"NAME_":"NUCKOLS FARM"}},{"type":"Feature","id":4,"geometry":{"type":"Point","coordinates":[-77.611981946959148,37.649580382670848]},"properties":{"OBJECTID":4,"LEVEL_":"Elementary","SCHOOL_":60,"LABEL":"Short Pump Elementary School","MAPNUMBER":53,"NAME_":"SHORT PUMP E."}},{"type":"Feature","id":5,"geometry":{"type":"Point","coordinates":[-77.632463018063291,37.63499001511321]},"properties":{"OBJECTID":5,"LEVEL_":"Elementary","SCHOOL_":150,"LABEL":"Gayton Elementary School","MAPNUMBER":19,"NAME_":"GAYTON"}},{"type":"Feature","id":6,"geometry":{"type":"Point","coordinates":[-77.628170979716216,37.606883601810438]},"properties":{"OBJECTID":6,"LEVEL_":"Elementary","SCHOOL_":650,"LABEL":"Ruby F. Carver Elementary","MAPNUMBER":6,"NAME_":"CARVER"}},{"type":"Feature","id":7,"geometry":{"type":"Point","coordinates":[-77.579393747666899,37.608276179705733]},"properties":{"OBJECTID":7,"LEVEL_":"Elementary","SCHOOL_":440,"LABEL":"Pemberton Elementary School","MAPNUMBER":43,"NAME_":"PEMBERTON"}},{"type":"Feature","id":8,"geometry":{"type":"Point","coordinates":[-77.590091510632277,37.602270706003814]},"properties":{"OBJECTID":8,"LEVEL_":"Elementary","SCHOOL_":570,"LABEL":"Pinchbeck Elementary School","MAPNUMBER":44,"NAME_":"PINCHBECK"}},{"type":"Feature","id":9,"geometry":{"type":"Point","coordinates":[-77.582355107374937,37.593657732406854]},"properties":{"OBJECTID":9,"LEVEL_":"Elementary","SCHOOL_":540,"LABEL":"Maybeury Elementary School","MAPNUMBER":38,"NAME_":"MAYBEURY"}},{"type":"Feature","id":10,"geometry":{"type":"Point","coordinates":[-77.553127417605296,37.584348084797746]},"properties":{"OBJECTID":10,"LEVEL_":"Elementary","SCHOOL_":360,"LABEL":"Tuckahoe Elementary School","MAPNUMBER":59,"NAME_":"TUCKAHOE E."}},{"type":"Feature","id":11,"geometry":{"type":"Point","coordinates":[-77.55956714251522,37.605279720276371]},"properties":{"OBJECTID":11,"LEVEL_":"Elementary","SCHOOL_":90,"LABEL":"Ridge Elementary School","MAPNUMBER":47,"NAME_":"RIDGE"}},{"type":"Feature","id":12,"geometry":{"type":"Point","coordinates":[-77.538805551362131,37.602493070916019]},"properties":{"OBJECTID":12,"LEVEL_":"Elementary","SCHOOL_":10,"LABEL":"Three Chopt Elementary School","MAPNUMBER":57,"NAME_":"THREE CHOPT"}},{"type":"Feature","id":13,"geometry":{"type":"Point","coordinates":[-77.505010039746395,37.603210867305108]},"properties":{"OBJECTID":13,"LEVEL_":"Elementary","SCHOOL_":530,"LABEL":"Charles M. Johnson Elementary","MAPNUMBER":33,"NAME_":"JOHNSON"}},{"type":"Feature","id":14,"geometry":{"type":"Point","coordinates":[-77.52026794324793,37.600121381936759]},"properties":{"OBJECTID":14,"LEVEL_":"Elementary","SCHOOL_":400,"LABEL":"Crestview Elementary","MAPNUMBER":9,"NAME_":"CRESTVIEW"}},{"type":"Feature","id":15,"geometry":{"type":"Point","coordinates":[-77.53627349436961,37.618822874763261]},"properties":{"OBJECTID":15,"LEVEL_":"Elementary","SCHOOL_":480,"LABEL":"Skipwith Elementary School","MAPNUMBER":55,"NAME_":"SKIPWITH"}},{"type":"Feature","id":16,"geometry":{"type":"Point","coordinates":[-77.546598795182803,37.640935739639573]},"properties":{"OBJECTID":16,"LEVEL_":"Elementary","SCHOOL_":630,"LABEL":"R.C. Longan Elementary","MAPNUMBER":36,"NAME_":"LONGAN"}},{"type":"Feature","id":17,"geometry":{"type":"Point","coordinates":[-77.544992691653604,37.668201573665002]},"properties":{"OBJECTID":17,"LEVEL_":"Elementary","SCHOOL_":300,"LABEL":"Echo Lake Elementary School","MAPNUMBER":14,"NAME_":"ECHO LAKE"}},{"type":"Feature","id":18,"geometry":{"type":"Point","coordinates":[-77.565169830539787,37.657226126178379]},"properties":{"OBJECTID":18,"LEVEL_":"Elementary","SCHOOL_":230,"LABEL":"Springfield Park Elementary School","MAPNUMBER":56,"NAME_":"SPRINGFIELD PARK"}},{"type":"Feature","id":19,"geometry":{"type":"Point","coordinates":[-77.523292965312294,37.678372173112002]},"properties":{"OBJECTID":19,"LEVEL_":"Elementary","SCHOOL_":20,"LABEL":"Glen Allen Elementary School","MAPNUMBER":20,"NAME_":"GLEN ALLEN E."}},{"type":"Feature","id":20,"geometry":{"type":"Point","coordinates":[-77.491803111060818,37.638243650595442]},"properties":{"OBJECTID":20,"LEVEL_":"Elementary","SCHOOL_":490,"LABEL":"Maude Trevvett Elementary ","MAPNUMBER":58,"NAME_":"TREVVETT"}},{"type":"Feature","id":21,"geometry":{"type":"Point","coordinates":[-77.464003913708467,37.654534759807056]},"properties":{"OBJECTID":21,"LEVEL_":"Elementary","SCHOOL_":50,"LABEL":"Longdale Elementary School","MAPNUMBER":37,"NAME_":"LONGDALE"}},{"type":"Feature","id":22,"geometry":{"type":"Point","coordinates":[-77.490135006357534,37.619510461886875]},"properties":{"OBJECTID":22,"LEVEL_":"Elementary","SCHOOL_":680,"LABEL":"Elizabeth Holladay Elementary","MAPNUMBER":30,"NAME_":"HOLLADAY"}},{"type":"Feature","id":23,"geometry":{"type":"Point","coordinates":[-77.478855949832365,37.613321288043522]},"properties":{"OBJECTID":23,"LEVEL_":"Elementary","SCHOOL_":370,"LABEL":"Lakeside Elementary School","MAPNUMBER":35,"NAME_":"LAKESIDE"}},{"type":"Feature","id":24,"geometry":{"type":"Point","coordinates":[-77.44216782083673,37.631720399742363]},"properties":{"OBJECTID":24,"LEVEL_":"Elementary","SCHOOL_":590,"LABEL":"Chamberlayne Elementary","MAPNUMBER":7,"NAME_":"CHAMBERLAYNE"}},{"type":"Feature","id":25,"geometry":{"type":"Point","coordinates":[-77.428328324464289,37.596753319417509]},"properties":{"OBJECTID":25,"LEVEL_":"Elementary","SCHOOL_":430,"LABEL":"Laburnum Elementary School","MAPNUMBER":34,"NAME_":"LABURNUM"}},{"type":"Feature","id":26,"geometry":{"type":"Point","coordinates":[-77.400951143257785,37.580010200827438]},"properties":{"OBJECTID":26,"LEVEL_":"Elementary","SCHOOL_":380,"LABEL":"Glen Lea Elementary School","MAPNUMBER":22,"NAME_":"GLEN LEA"}},{"type":"Feature","id":27,"geometry":{"type":"Point","coordinates":[-77.389380578907151,37.568131129401756]},"properties":{"OBJECTID":27,"LEVEL_":"Elementary","SCHOOL_":420,"LABEL":"Harold Macon Ratcliffe Elementary","MAPNUMBER":46,"NAME_":"RATCLIFFE"}},{"type":"Feature","id":28,"geometry":{"type":"Point","coordinates":[-77.364092880407938,37.571762448042634]},"properties":{"OBJECTID":28,"LEVEL_":"Elementary","SCHOOL_":320,"LABEL":"Arthur Ashe Jr. Elementary   ","MAPNUMBER":2,"NAME_":"ASHE"}},{"type":"Feature","id":29,"geometry":{"type":"Point","coordinates":[-77.365949464559847,37.536164516285169]},"properties":{"OBJECTID":29,"LEVEL_":"Elementary","SCHOOL_":660,"LABEL":"Jacob L. Adams Elementary","MAPNUMBER":1,"NAME_":"ADAMS"}},{"type":"Feature","id":30,"geometry":{"type":"Point","coordinates":[-77.340624244729767,37.542536380109865]},"properties":{"OBJECTID":30,"LEVEL_":"Elementary","SCHOOL_":640,"LABEL":"Highland Springs Elementary School","MAPNUMBER":28,"NAME_":"HIGHLAND SPRINGS E."}},{"type":"Feature","id":31,"geometry":{"type":"Point","coordinates":[-77.320447001477859,37.533987109339584]},"properties":{"OBJECTID":31,"LEVEL_":"Elementary","SCHOOL_":200,"LABEL":"Fair Oaks Elementary School","MAPNUMBER":16,"NAME_":"FAIR OAKS"}},{"type":"Feature","id":32,"geometry":{"type":"Point","coordinates":[-77.292853804819387,37.538157664262023]},"properties":{"OBJECTID":32,"LEVEL_":"Elementary","SCHOOL_":120,"LABEL":"Cashell Donahoe Elementary","MAPNUMBER":12,"NAME_":"DONAHOE"}},{"type":"Feature","id":33,"geometry":{"type":"Point","coordinates":[-77.312733621801698,37.524571127852035]},"properties":{"OBJECTID":33,"LEVEL_":"Elementary","SCHOOL_":220,"LABEL":"Sandston Elementary School","MAPNUMBER":50,"NAME_":"SANDSTON"}},{"type":"Feature","id":34,"geometry":{"type":"Point","coordinates":[-77.304764125497201,37.516187806653065]},"properties":{"OBJECTID":34,"LEVEL_":"Elementary","SCHOOL_":550,"LABEL":"Seven Pines Elementary School","MAPNUMBER":51,"NAME_":"SEVEN PINES"}},{"type":"Feature","id":35,"geometry":{"type":"Point","coordinates":[-77.376341355546714,37.519477674560306]},"properties":{"OBJECTID":35,"LEVEL_":"Elementary","SCHOOL_":210,"LABEL":"Montrose Elementary School","MAPNUMBER":40,"NAME_":"MONTROSE"}},{"type":"Feature","id":36,"geometry":{"type":"Point","coordinates":[-77.367381319535838,37.482968530872036]},"properties":{"OBJECTID":36,"LEVEL_":"Elementary","SCHOOL_":470,"LABEL":"George F. Baker Elementary","MAPNUMBER":3,"NAME_":"BAKER"}},{"type":"Feature","id":37,"geometry":{"type":"Point","coordinates":[-77.324569175480889,37.467469783081533]},"properties":{"OBJECTID":37,"LEVEL_":"Elementary","SCHOOL_":330,"LABEL":"Henry D. Ward Elementary","MAPNUMBER":66,"NAME_":"WARD"}},{"type":"Feature","id":38,"geometry":{"type":"Point","coordinates":[-77.345202802800756,37.436610640709297]},"properties":{"OBJECTID":38,"LEVEL_":"Elementary","SCHOOL_":450,"LABEL":"Anthony P. Mehfoud Elementary","MAPNUMBER":39,"NAME_":"MEHFOUD"}},{"type":"Feature","id":39,"geometry":{"type":"Point","coordinates":[-77.354584154667052,37.444624506203709]},"properties":{"OBJECTID":39,"LEVEL_":"Elementary","SCHOOL_":290,"LABEL":"Varina Elementary School","MAPNUMBER":63,"NAME_":"VARINA E."}},{"type":"Feature","id":40,"geometry":{"type":"Point","coordinates":[-77.518994249139936,37.638834256131553]},"properties":{"OBJECTID":40,"LEVEL_":"Elementary","SCHOOL_":700,"LABEL":"Dumbarton Elementary School","MAPNUMBER":13,"NAME_":"DUMBARTON"}},{"type":"Feature","id":41,"geometry":{"type":"Point","coordinates":[-77.558402519799728,37.62368148841297]},"properties":{"OBJECTID":41,"LEVEL_":"Elementary","SCHOOL_":620,"LABEL":"Jackson Davis Elementary","MAPNUMBER":10,"NAME_":"DAVIS"}},{"type":"Feature","id":42,"geometry":{"type":"Point","coordinates":[-77.579829119915132,37.687414496862324]},"properties":{"OBJECTID":42,"LEVEL_":"Elementary","SCHOOL_":240,"LABEL":"Rivers Edge Elementary School","MAPNUMBER":48,"NAME_":"RIVERS EDGE"}},{"type":"Feature","id":43,"geometry":{"type":"Point","coordinates":[-77.487199413628659,37.671415248416629]},"properties":{"OBJECTID":43,"LEVEL_":"Elementary","SCHOOL_":260,"LABEL":"Greenwood Elementary School","MAPNUMBER":24,"NAME_":"GREENWOOD"}},{"type":"Feature","id":44,"geometry":{"type":"Point","coordinates":[-77.61402971647216,37.660512326468861]},"properties":{"OBJECTID":44,"LEVEL_":"Elementary","SCHOOL_":93,"LABEL":"Colonial Trail Elementary ","MAPNUMBER":8,"NAME_":"COLONIAL TRAIL"}},{"type":"Feature","id":45,"geometry":{"type":"Point","coordinates":[-77.37943892059738,37.570693078644439]},"properties":{"OBJECTID":45,"LEVEL_":"Elementary","SCHOOL_":94,"LABEL":"Harvie Elementary School","MAPNUMBER":25,"NAME_":"HARVIE"}},{"type":"Feature","id":46,"geometry":{"type":"Point","coordinates":[-77.609873777439105,37.666736908676597]},"properties":{"OBJECTID":46,"LEVEL_":"Middle","SCHOOL_":80,"LABEL":"Short Pump Middle School","MAPNUMBER":54,"NAME_":"SHORT PUMP M."}},{"type":"Feature","id":47,"geometry":{"type":"Point","coordinates":[-77.608280873102942,37.645874494082499]},"properties":{"OBJECTID":47,"LEVEL_":"Middle","SCHOOL_":280,"LABEL":"Pocahontas Middle School","MAPNUMBER":45,"NAME_":"POCAHONTAS"}},{"type":"Feature","id":48,"geometry":{"type":"Point","coordinates":[-77.581858803986847,37.60839590631079]},"properties":{"OBJECTID":48,"LEVEL_":"Middle","SCHOOL_":690,"LABEL":"Quioccasin Middle School","MAPNUMBER":5,"NAME_":"QUIOCCASIN"}},{"type":"Feature","id":49,"geometry":{"type":"Point","coordinates":[-77.560227697702274,37.608142441603725]},"properties":{"OBJECTID":49,"LEVEL_":"Middle","SCHOOL_":520,"LABEL":"Tuckahoe Middle School","MAPNUMBER":60,"NAME_":"TUCKAHOE M."}},{"type":"Feature","id":50,"geometry":{"type":"Point","coordinates":[-77.481354725626304,37.625487079764639]},"properties":{"OBJECTID":50,"LEVEL_":"Middle","SCHOOL_":390,"LABEL":"Moody Middle School","MAPNUMBER":41,"NAME_":"MOODY"}},{"type":"Feature","id":51,"geometry":{"type":"Point","coordinates":[-77.481722905496881,37.641604555476043]},"properties":{"OBJECTID":51,"LEVEL_":"Middle","SCHOOL_":500,"LABEL":"Brookland Middle School","MAPNUMBER":4,"NAME_":"BROOKLAND"}},{"type":"Feature","id":52,"geometry":{"type":"Point","coordinates":[-77.421664509937685,37.620340881131099]},"properties":{"OBJECTID":52,"LEVEL_":"Middle","SCHOOL_":250,"LABEL":"L. Douglas Wilder Middle School","MAPNUMBER":67,"NAME_":"WILDER"}},{"type":"Feature","id":53,"geometry":{"type":"Point","coordinates":[-77.359763920903958,37.545305364130471]},"properties":{"OBJECTID":53,"LEVEL_":"Middle","SCHOOL_":510,"LABEL":"Fairfield Middle School","MAPNUMBER":17,"NAME_":"FAIRFIELD"}},{"type":"Feature","id":54,"geometry":{"type":"Point","coordinates":[-77.373011371784429,37.47653255126091]},"properties":{"OBJECTID":54,"LEVEL_":"Middle","SCHOOL_":130,"LABEL":"Rolfe Middle School","MAPNUMBER":49,"NAME_":"ROLFE"}},{"type":"Feature","id":55,"geometry":{"type":"Point","coordinates":[-77.537269860682869,37.657562151186276]},"properties":{"OBJECTID":55,"LEVEL_":"Middle","SCHOOL_":100,"LABEL":"Hungary Creek Middle School","MAPNUMBER":32,"NAME_":"HUNGARY CREEK"}},{"type":"Feature","id":56,"geometry":{"type":"Point","coordinates":[-77.232546811837381,37.503705560345395]},"properties":{"OBJECTID":56,"LEVEL_":"Middle","SCHOOL_":92,"LABEL":"Elko Middle School","MAPNUMBER":15,"NAME_":"ELKO"}},{"type":"Feature","id":57,"geometry":{"type":"Point","coordinates":[-77.590224303460758,37.689839122660942]},"properties":{"OBJECTID":57,"LEVEL_":"Middle","SCHOOL_":95,"LABEL":"Holman Middle School","MAPNUMBER":31,"NAME_":"HOLMAN"}},{"type":"Feature","id":58,"geometry":{"type":"Point","coordinates":[-77.604807664360791,37.619740909631012]},"properties":{"OBJECTID":58,"LEVEL_":"High","SCHOOL_":140,"LABEL":"Mills\u00A0E. Godwin High ","MAPNUMBER":23,"NAME_":"GODWIN"}},{"type":"Feature","id":59,"geometry":{"type":"Point","coordinates":[-77.558539441379082,37.601498009520135]},"properties":{"OBJECTID":59,"LEVEL_":"High","SCHOOL_":410,"LABEL":"Douglas S. Freeman High","MAPNUMBER":18,"NAME_":"FREEMAN"}},{"type":"Feature","id":60,"geometry":{"type":"Point","coordinates":[-77.431503102470842,37.60362754141677]},"properties":{"OBJECTID":60,"LEVEL_":"High","SCHOOL_":610,"LABEL":"Henrico High School","MAPNUMBER":26,"NAME_":"HENRICO"}},{"type":"Feature","id":61,"geometry":{"type":"Point","coordinates":[-77.324176244212495,37.539320070455318]},"properties":{"OBJECTID":61,"LEVEL_":"High","SCHOOL_":190,"LABEL":"Highland Springs High School","MAPNUMBER":29,"NAME_":"HIGHLAND SPRINGS H."}},{"type":"Feature","id":62,"geometry":{"type":"Point","coordinates":[-77.376868558187667,37.472835987212541]},"properties":{"OBJECTID":62,"LEVEL_":"High","SCHOOL_":580,"LABEL":"Varina High School","MAPNUMBER":64,"NAME_":"VARINA H."}},{"type":"Feature","id":63,"geometry":{"type":"Point","coordinates":[-77.481751750148447,37.661841149568851]},"properties":{"OBJECTID":63,"LEVEL_":"Program","SCHOOL_":40,"LABEL":"Academy at Virginia Randolph","MAPNUMBER":65,"NAME_":"VIRGINIA RANDOLPH"}},{"type":"Feature","id":64,"geometry":{"type":"Point","coordinates":[-77.517056303850239,37.633384529663132]},"properties":{"OBJECTID":64,"LEVEL_":"High","SCHOOL_":670,"LABEL":"Hermitage High School","MAPNUMBER":27,"NAME_":"HERMITAGE"}},{"type":"Feature","id":65,"geometry":{"type":"Point","coordinates":[-77.548344442280552,37.628825597506619]},"properties":{"OBJECTID":65,"LEVEL_":"High","SCHOOL_":600,"LABEL":"Tucker High School","MAPNUMBER":61,"NAME_":"TUCKER"}},{"type":"Feature","id":66,"geometry":{"type":"Point","coordinates":[-77.599215380544194,37.675245118289624]},"properties":{"OBJECTID":66,"LEVEL_":"High","SCHOOL_":160,"LABEL":"Deep Run High School","MAPNUMBER":11,"NAME_":"DEEP RUN"}},{"type":"Feature","id":67,"geometry":{"type":"Point","coordinates":[-77.534172310401317,37.666144749325149]},"properties":{"OBJECTID":67,"LEVEL_":"High","SCHOOL_":96,"LABEL":"Glen Allen High School","MAPNUMBER":21,"NAME_":"GLEN ALLEN H."}},{"type":"Feature","id":68,"geometry":{"type":"Point","coordinates":[-77.63176999011921,37.692184462473705]},"properties":{"OBJECTID":68,"LEVEL_":"Elementary","SCHOOL_":82,"LABEL":"David A. Kaechele Elementary","MAPNUMBER":67,"NAME_":"KAECHELE"}}]}