{
"type": "FeatureCollection",
"name": "access_grid_final",
"crs": { "type": "name", "properties": { "name": "urn:ogc:def:crs:OGC:1.3:CRS84" } },
"features": [
{ "type": "Feature", "properties": { "id": 1, "latitude": 37.617947268698771, "longitude": -77.650399130062695, "from_id": 1, "Civic": 0, "Education": 1, "Food": 1, "Health": 1, "access_score": 3 }, "geometry": { "type": "Point", "coordinates": [ -77.650399130062695, 37.617947268698771 ] } },
{ "type": "Feature", "properties": { "id": 2, "latitude": 37.625062469950045, "longitude": -77.650399130062695, "from_id": 2, "Civic": 0, "Education": 1, "Food": 4, "Health": 1, "access_score": 6 }, "geometry": { "type": "Point", "coordinates": [ -77.650399130062695, 37.625062469950045 ] } },
{ "type": "Feature", "properties": { "id": 3, "latitude": 37.628619815200409, "longitude": -77.650399130062695, "from_id": 3, "Civic": 0, "Education": 1, "Food": 3, "Health": 1, "access_score": 5 }, "geometry": { "type": "Point", "coordinates": [ -77.650399130062695, 37.628619815200409 ] } },
{ "type": "Feature", "properties": { "id": 4, "latitude": 37.63217699019318, "longitude": -77.650399130062695, "from_id": 4, "Civic": 0, "Education": 1, "Food": 2, "Health": 1, "access_score": 4 }, "geometry": { "type": "Point", "coordinates": [ -77.650399130062695, 37.63217699019318 ] } },
{ "type": "Feature", "properties": { "id": 5, "latitude": 37.607273190029062, "longitude": -77.641415977221499, "from_id": 5, "Civic": 0, "Education": 1, "Food": 1, "Health": 1, "access_score": 3 }, "geometry": { "type": "Point", "coordinates": [ -77.641415977221499, 37.607273190029062 ] } },
{ "type": "Feature", "properties": { "id": 6, "latitude": 37.610831386483902, "longitude": -77.641415977221499, "from_id": 6, "Civic": 0, "Education": 1, "Food": 2, "Health": 2, "access_score": 5 }, "geometry": { "type": "Point", "coordinates": [ -77.641415977221499, 37.610831386483902 ] } },
{ "type": "Feature", "properties": { "id": 7, "latitude": 37.610831386483902, "longitude": -77.636924400800893, "from_id": 7, "Civic": 0, "Education": 1, "Food": 6, "Health": 2, "access_score": 9 }, "geometry": { "type": "Point", "coordinates": [ -77.636924400800893, 37.610831386483902 ] } },
{ "type": "Feature", "properties": { "id": 8, "latitude": 37.671294676523452, "longitude": -77.636924400800893, "from_id": 8, "Civic": 0, "Education": 0, "Food": 1, "Health": 1, "access_score": 2 }, "geometry": { "type": "Point", "coordinates": [ -77.636924400800893, 37.671294676523452 ] } },
{ "type": "Feature", "properties": { "id": 9, "latitude": 37.674849807992032, "longitude": -77.636924400800893, "from_id": 9, "Civic": 0, "Education": 0, "Food": 1, "Health": 1, "access_score": 2 }, "geometry": { "type": "Point", "coordinates": [ -77.636924400800893, 37.674849807992032 ] } },
{ "type": "Feature", "properties": { "id": 10, "latitude": 37.671294676523452, "longitude": -77.632432824380302, "from_id": 10, "Civic": 0, "Education": 1, "Food": 1, "Health": 1, "access_score": 3 }, "geometry": { "type": "Point", "coordinates": [ -77.632432824380302, 37.671294676523452 ] } },
{ "type": "Feature", "properties": { "id": 11, "latitude": 37.674849807992032, "longitude": -77.632432824380302, "from_id": 11, "Civic": 0, "Education": 1, "Food": 1, "Health": 1, "access_score": 3 }, "geometry": { "type": "Point", "coordinates": [ -77.632432824380302, 37.674849807992032 ] } },
{ "type": "Feature", "properties": { "id": 12, "latitude": 37.692622910279361, "longitude": -77.632432824380302, "from_id": 12, "Civic": 0, "Education": 1, "Food": 0, "Health": 1, "access_score": 2 }, "geometry": { "type": "Point", "coordinates": [ -77.632432824380302, 37.692622910279361 ] } },
{ "type": "Feature", "properties": { "id": 13, "latitude": 37.600156286452453, "longitude": -77.627941247959697, "from_id": 13, "Civic": 0, "Education": 1, "Food": 5, "Health": 1, "access_score": 7 }, "geometry": { "type": "Point", "coordinates": [ -77.627941247959697, 37.600156286452453 ] } },
{ "type": "Feature", "properties": { "id": 14, "latitude": 37.667739374730722, "longitude": -77.627941247959697, "from_id": 14, "Civic": 0, "Education": 3, "Food": 8, "Health": 12, "access_score": 23 }, "geometry": { "type": "Point", "coordinates": [ -77.627941247959697, 37.667739374730722 ] } },
{ "type": "Feature", "properties": { "id": 15, "latitude": 37.671294676523452, "longitude": -77.627941247959697, "from_id": 15, "Civic": 0, "Education": 2, "Food": 1, "Health": 4, "access_score": 7 }, "geometry": { "type": "Point", "coordinates": [ -77.627941247959697, 37.671294676523452 ] } },
{ "type": "Feature", "properties": { "id": 16, "latitude": 37.59303870202384, "longitude": -77.623449671539106, "from_id": 16, "Civic": 0, "Education": 1, "Food": 5, "Health": 1, "access_score": 7 }, "geometry": { "type": "Point", "coordinates": [ -77.623449671539106, 37.59303870202384 ] } },
{ "type": "Feature", "properties": { "id": 17, "latitude": 37.625062469950045, "longitude": -77.623449671539106, "from_id": 17, "Civic": 0, "Education": 0, "Food": 2, "Health": 2, "access_score": 4 }, "geometry": { "type": "Point", "coordinates": [ -77.623449671539106, 37.625062469950045 ] } },
{ "type": "Feature", "properties": { "id": 18, "latitude": 37.628619815200409, "longitude": -77.623449671539106, "from_id": 18, "Civic": 0, "Education": 1, "Food": 4, "Health": 3, "access_score": 8 }, "geometry": { "type": "Point", "coordinates": [ -77.623449671539106, 37.628619815200409 ] } },
{ "type": "Feature", "properties": { "id": 19, "latitude": 37.646403987477065, "longitude": -77.61446651869791, "from_id": 19, "Civic": 0, "Education": 3, "Food": 19, "Health": 8, "access_score": 30 }, "geometry": { "type": "Point", "coordinates": [ -77.61446651869791, 37.646403987477065 ] } },
{ "type": "Feature", "properties": { "id": 20, "latitude": 37.646403987477065, "longitude": -77.609974942277304, "from_id": 20, "Civic": 0, "Education": 3, "Food": 19, "Health": 9, "access_score": 31 }, "geometry": { "type": "Point", "coordinates": [ -77.609974942277304, 37.646403987477065 ] } },
{ "type": "Feature", "properties": { "id": 21, "latitude": 37.667739374730722, "longitude": -77.609974942277304, "from_id": 21, "Civic": 0, "Education": 5, "Food": 9, "Health": 4, "access_score": 18 }, "geometry": { "type": "Point", "coordinates": [ -77.609974942277304, 37.667739374730722 ] } },
{ "type": "Feature", "properties": { "id": 22, "latitude": 37.646403987477065, "longitude": -77.605483365856713, "from_id": 22, "Civic": 0, "Education": 3, "Food": 21, "Health": 9, "access_score": 33 }, "geometry": { "type": "Point", "coordinates": [ -77.605483365856713, 37.646403987477065 ] } },
{ "type": "Feature", "properties": { "id": 23, "latitude": 37.674849807992032, "longitude": -77.600991789436122, "from_id": 23, "Civic": 1, "Education": 4, "Food": 6, "Health": 2, "access_score": 13 }, "geometry": { "type": "Point", "coordinates": [ -77.600991789436122, 37.674849807992032 ] } },
{ "type": "Feature", "properties": { "id": 24, "latitude": 37.678404769130942, "longitude": -77.596500213015517, "from_id": 24, "Civic": 1, "Education": 5, "Food": 5, "Health": 2, "access_score": 13 }, "geometry": { "type": "Point", "coordinates": [ -77.596500213015517, 37.678404769130942 ] } },
{ "type": "Feature", "properties": { "id": 25, "latitude": 37.625062469950045, "longitude": -77.592008636594926, "from_id": 25, "Civic": 0, "Education": 1, "Food": 3, "Health": 4, "access_score": 8 }, "geometry": { "type": "Point", "coordinates": [ -77.592008636594926, 37.625062469950045 ] } },
{ "type": "Feature", "properties": { "id": 26, "latitude": 37.68906863051437, "longitude": -77.592008636594926, "from_id": 26, "Civic": 1, "Education": 4, "Food": 5, "Health": 2, "access_score": 12 }, "geometry": { "type": "Point", "coordinates": [ -77.592008636594926, 37.68906863051437 ] } },
{ "type": "Feature", "properties": { "id": 27, "latitude": 37.625062469950045, "longitude": -77.587517060174321, "from_id": 27, "Civic": 0, "Education": 1, "Food": 4, "Health": 5, "access_score": 10 }, "geometry": { "type": "Point", "coordinates": [ -77.587517060174321, 37.625062469950045 ] } },
{ "type": "Feature", "properties": { "id": 28, "latitude": 37.628619815200409, "longitude": -77.587517060174321, "from_id": 28, "Civic": 0, "Education": 0, "Food": 3, "Health": 3, "access_score": 6 }, "geometry": { "type": "Point", "coordinates": [ -77.587517060174321, 37.628619815200409 ] } },
{ "type": "Feature", "properties": { "id": 29, "latitude": 37.610831386483902, "longitude": -77.58302548375373, "from_id": 29, "Civic": 0, "Education": 3, "Food": 2, "Health": 3, "access_score": 8 }, "geometry": { "type": "Point", "coordinates": [ -77.58302548375373, 37.610831386483902 ] } },
{ "type": "Feature", "properties": { "id": 30, "latitude": 37.625062469950045, "longitude": -77.58302548375373, "from_id": 30, "Civic": 0, "Education": 1, "Food": 5, "Health": 6, "access_score": 12 }, "geometry": { "type": "Point", "coordinates": [ -77.58302548375373, 37.625062469950045 ] } },
{ "type": "Feature", "properties": { "id": 31, "latitude": 37.600156286452453, "longitude": -77.560567601650732, "from_id": 31, "Civic": 1, "Education": 5, "Food": 14, "Health": 4, "access_score": 24 }, "geometry": { "type": "Point", "coordinates": [ -77.560567601650732, 37.600156286452453 ] } },
{ "type": "Feature", "properties": { "id": 32, "latitude": 37.671294676523452, "longitude": -77.547092872388944, "from_id": 32, "Civic": 0, "Education": 2, "Food": 0, "Health": 1, "access_score": 3 }, "geometry": { "type": "Point", "coordinates": [ -77.547092872388944, 37.671294676523452 ] } },
{ "type": "Feature", "properties": { "id": 33, "latitude": 37.674849807992032, "longitude": -77.547092872388944, "from_id": 33, "Civic": 1, "Education": 2, "Food": 0, "Health": 1, "access_score": 4 }, "geometry": { "type": "Point", "coordinates": [ -77.547092872388944, 37.674849807992032 ] } },
{ "type": "Feature", "properties": { "id": 34, "latitude": 37.664183902619378, "longitude": -77.538109719547748, "from_id": 34, "Civic": 1, "Education": 4, "Food": 2, "Health": 1, "access_score": 8 }, "geometry": { "type": "Point", "coordinates": [ -77.538109719547748, 37.664183902619378 ] } },
{ "type": "Feature", "properties": { "id": 35, "latitude": 37.667739374730722, "longitude": -77.538109719547748, "from_id": 35, "Civic": 1, "Education": 3, "Food": 0, "Health": 1, "access_score": 5 }, "geometry": { "type": "Point", "coordinates": [ -77.538109719547748, 37.667739374730722 ] } },
{ "type": "Feature", "properties": { "id": 36, "latitude": 37.639290829383683, "longitude": -77.520143413865355, "from_id": 36, "Civic": 0, "Education": 2, "Food": 10, "Health": 6, "access_score": 18 }, "geometry": { "type": "Point", "coordinates": [ -77.520143413865355, 37.639290829383683 ] } },
{ "type": "Feature", "properties": { "id": 37, "latitude": 37.674849807992032, "longitude": -77.520143413865355, "from_id": 37, "Civic": 1, "Education": 1, "Food": 1, "Health": 1, "access_score": 4 }, "geometry": { "type": "Point", "coordinates": [ -77.520143413865355, 37.674849807992032 ] } },
{ "type": "Feature", "properties": { "id": 38, "latitude": 37.678404769130942, "longitude": -77.520143413865355, "from_id": 38, "Civic": 1, "Education": 1, "Food": 1, "Health": 1, "access_score": 4 }, "geometry": { "type": "Point", "coordinates": [ -77.520143413865355, 37.678404769130942 ] } },
{ "type": "Feature", "properties": { "id": 39, "latitude": 37.674849807992032, "longitude": -77.515651837444764, "from_id": 39, "Civic": 1, "Education": 1, "Food": 3, "Health": 1, "access_score": 6 }, "geometry": { "type": "Point", "coordinates": [ -77.515651837444764, 37.674849807992032 ] } },
{ "type": "Feature", "properties": { "id": 40, "latitude": 37.678404769130942, "longitude": -77.515651837444764, "from_id": 40, "Civic": 1, "Education": 1, "Food": 1, "Health": 1, "access_score": 4 }, "geometry": { "type": "Point", "coordinates": [ -77.515651837444764, 37.678404769130942 ] } },
{ "type": "Feature", "properties": { "id": 41, "latitude": 37.678404769130942, "longitude": -77.511160261024159, "from_id": 41, "Civic": 1, "Education": 1, "Food": 1, "Health": 1, "access_score": 4 }, "geometry": { "type": "Point", "coordinates": [ -77.511160261024159, 37.678404769130942 ] } },
{ "type": "Feature", "properties": { "id": 42, "latitude": 37.667739374730722, "longitude": -77.497685531762372, "from_id": 42, "Civic": 0, "Education": 1, "Food": 1, "Health": 1, "access_score": 3 }, "geometry": { "type": "Point", "coordinates": [ -77.497685531762372, 37.667739374730722 ] } },
{ "type": "Feature", "properties": { "id": 43, "latitude": 37.678404769130942, "longitude": -77.488702378921175, "from_id": 43, "Civic": 0, "Education": 1, "Food": 0, "Health": 1, "access_score": 2 }, "geometry": { "type": "Point", "coordinates": [ -77.488702378921175, 37.678404769130942 ] } },
{ "type": "Feature", "properties": { "id": 44, "latitude": 37.681959559934647, "longitude": -77.488702378921175, "from_id": 44, "Civic": 0, "Education": 1, "Food": 0, "Health": 1, "access_score": 2 }, "geometry": { "type": "Point", "coordinates": [ -77.488702378921175, 37.681959559934647 ] } },
{ "type": "Feature", "properties": { "id": 45, "latitude": 37.685514180397632, "longitude": -77.488702378921175, "from_id": 45, "Civic": 0, "Education": 1, "Food": 0, "Health": 1, "access_score": 2 }, "geometry": { "type": "Point", "coordinates": [ -77.488702378921175, 37.685514180397632 ] } },
{ "type": "Feature", "properties": { "id": 46, "latitude": 37.657072447462944, "longitude": -77.484210802500584, "from_id": 46, "Civic": 0, "Education": 2, "Food": 2, "Health": 1, "access_score": 5 }, "geometry": { "type": "Point", "coordinates": [ -77.484210802500584, 37.657072447462944 ] } },
{ "type": "Feature", "properties": { "id": 47, "latitude": 37.681959559934647, "longitude": -77.484210802500584, "from_id": 47, "Civic": 0, "Education": 1, "Food": 0, "Health": 1, "access_score": 2 }, "geometry": { "type": "Point", "coordinates": [ -77.484210802500584, 37.681959559934647 ] } },
{ "type": "Feature", "properties": { "id": 48, "latitude": 37.639290829383683, "longitude": -77.479719226079979, "from_id": 48, "Civic": 0, "Education": 3, "Food": 8, "Health": 3, "access_score": 14 }, "geometry": { "type": "Point", "coordinates": [ -77.479719226079979, 37.639290829383683 ] } },
{ "type": "Feature", "properties": { "id": 49, "latitude": 37.610831386483902, "longitude": -77.461752920397586, "from_id": 49, "Civic": 0, "Education": 0, "Food": 10, "Health": 1, "access_score": 11 }, "geometry": { "type": "Point", "coordinates": [ -77.461752920397586, 37.610831386483902 ] } },
{ "type": "Feature", "properties": { "id": 50, "latitude": 37.617947268698771, "longitude": -77.461752920397586, "from_id": 50, "Civic": 0, "Education": 2, "Food": 14, "Health": 2, "access_score": 18 }, "geometry": { "type": "Point", "coordinates": [ -77.461752920397586, 37.617947268698771 ] } },
{ "type": "Feature", "properties": { "id": 51, "latitude": 37.603714823350053, "longitude": -77.434803461874012, "from_id": 51, "Civic": 0, "Education": 2, "Food": 9, "Health": 1, "access_score": 12 }, "geometry": { "type": "Point", "coordinates": [ -77.434803461874012, 37.603714823350053 ] } },
{ "type": "Feature", "properties": { "id": 52, "latitude": 37.617947268698771, "longitude": -77.430311885453406, "from_id": 52, "Civic": 0, "Education": 2, "Food": 4, "Health": 1, "access_score": 7 }, "geometry": { "type": "Point", "coordinates": [ -77.430311885453406, 37.617947268698771 ] } },
{ "type": "Feature", "properties": { "id": 53, "latitude": 37.614389412709002, "longitude": -77.425820309032815, "from_id": 53, "Civic": 0, "Education": 3, "Food": 2, "Health": 1, "access_score": 6 }, "geometry": { "type": "Point", "coordinates": [ -77.425820309032815, 37.614389412709002 ] } },
{ "type": "Feature", "properties": { "id": 54, "latitude": 37.585920436787937, "longitude": -77.407854003350423, "from_id": 54, "Civic": 0, "Education": 1, "Food": 15, "Health": 2, "access_score": 18 }, "geometry": { "type": "Point", "coordinates": [ -77.407854003350423, 37.585920436787937 ] } },
{ "type": "Feature", "properties": { "id": 55, "latitude": 37.59303870202384, "longitude": -77.403362426929817, "from_id": 55, "Civic": 0, "Education": 1, "Food": 8, "Health": 2, "access_score": 11 }, "geometry": { "type": "Point", "coordinates": [ -77.403362426929817, 37.59303870202384 ] } },
{ "type": "Feature", "properties": { "id": 56, "latitude": 37.600156286452453, "longitude": -77.403362426929817, "from_id": 56, "Civic": 0, "Education": 1, "Food": 0, "Health": 1, "access_score": 2 }, "geometry": { "type": "Point", "coordinates": [ -77.403362426929817, 37.600156286452453 ] } },
{ "type": "Feature", "properties": { "id": 57, "latitude": 37.596597579341861, "longitude": -77.398870850509212, "from_id": 57, "Civic": 0, "Education": 1, "Food": 0, "Health": 1, "access_score": 2 }, "geometry": { "type": "Point", "coordinates": [ -77.398870850509212, 37.596597579341861 ] } },
{ "type": "Feature", "properties": { "id": 58, "latitude": 37.600156286452453, "longitude": -77.398870850509212, "from_id": 58, "Civic": 0, "Education": 0, "Food": 0, "Health": 1, "access_score": 1 }, "geometry": { "type": "Point", "coordinates": [ -77.398870850509212, 37.600156286452453 ] } },
{ "type": "Feature", "properties": { "id": 59, "latitude": 37.603714823350053, "longitude": -77.398870850509212, "from_id": 59, "Civic": 0, "Education": 0, "Food": 1, "Health": 0, "access_score": 1 }, "geometry": { "type": "Point", "coordinates": [ -77.398870850509212, 37.603714823350053 ] } },
{ "type": "Feature", "properties": { "id": 60, "latitude": 37.557440568667282, "longitude": -77.394379274088621, "from_id": 60, "Civic": 0, "Education": 1, "Food": 12, "Health": 0, "access_score": 13 }, "geometry": { "type": "Point", "coordinates": [ -77.394379274088621, 37.557440568667282 ] } },
{ "type": "Feature", "properties": { "id": 61, "latitude": 37.600156286452453, "longitude": -77.394379274088621, "from_id": 61, "Civic": 0, "Education": 0, "Food": 1, "Health": 0, "access_score": 1 }, "geometry": { "type": "Point", "coordinates": [ -77.394379274088621, 37.600156286452453 ] } },
{ "type": "Feature", "properties": { "id": 62, "latitude": 37.400606724877193, "longitude": -77.385396121247439, "from_id": 62, "Civic": 0, "Education": 0, "Food": 1, "Health": 0, "access_score": 1 }, "geometry": { "type": "Point", "coordinates": [ -77.385396121247439, 37.400606724877193 ] } },
{ "type": "Feature", "properties": { "id": 63, "latitude": 37.40417478501746, "longitude": -77.385396121247439, "from_id": 63, "Civic": 0, "Education": 0, "Food": 1, "Health": 0, "access_score": 1 }, "geometry": { "type": "Point", "coordinates": [ -77.385396121247439, 37.40417478501746 ] } },
{ "type": "Feature", "properties": { "id": 64, "latitude": 37.564561556684289, "longitude": -77.380904544826834, "from_id": 64, "Civic": 1, "Education": 2, "Food": 10, "Health": 1, "access_score": 14 }, "geometry": { "type": "Point", "coordinates": [ -77.380904544826834, 37.564561556684289 ] } },
{ "type": "Feature", "properties": { "id": 65, "latitude": 37.471935639887519, "longitude": -77.376412968406242, "from_id": 65, "Civic": 1, "Education": 3, "Food": 17, "Health": 0, "access_score": 21 }, "geometry": { "type": "Point", "coordinates": [ -77.376412968406242, 37.471935639887519 ] } },
{ "type": "Feature", "properties": { "id": 66, "latitude": 37.475500300912238, "longitude": -77.371921391985637, "from_id": 66, "Civic": 0, "Education": 3, "Food": 14, "Health": 0, "access_score": 17 }, "geometry": { "type": "Point", "coordinates": [ -77.371921391985637, 37.475500300912238 ] } },
{ "type": "Feature", "properties": { "id": 67, "latitude": 37.578801490789502, "longitude": -77.371921391985637, "from_id": 67, "Civic": 1, "Education": 1, "Food": 4, "Health": 0, "access_score": 6 }, "geometry": { "type": "Point", "coordinates": [ -77.371921391985637, 37.578801490789502 ] } },
{ "type": "Feature", "properties": { "id": 68, "latitude": 37.571681864073327, "longitude": -77.367429815565046, "from_id": 68, "Civic": 0, "Education": 1, "Food": 3, "Health": 0, "access_score": 4 }, "geometry": { "type": "Point", "coordinates": [ -77.367429815565046, 37.571681864073327 ] } },
{ "type": "Feature", "properties": { "id": 69, "latitude": 37.575241762518331, "longitude": -77.367429815565046, "from_id": 69, "Civic": 0, "Education": 1, "Food": 1, "Health": 0, "access_score": 2 }, "geometry": { "type": "Point", "coordinates": [ -77.367429815565046, 37.575241762518331 ] } },
{ "type": "Feature", "properties": { "id": 70, "latitude": 37.578801490789502, "longitude": -77.367429815565046, "from_id": 70, "Civic": 1, "Education": 1, "Food": 2, "Health": 0, "access_score": 4 }, "geometry": { "type": "Point", "coordinates": [ -77.367429815565046, 37.578801490789502 ] } },
{ "type": "Feature", "properties": { "id": 71, "latitude": 37.582361048881232, "longitude": -77.367429815565046, "from_id": 71, "Civic": 1, "Education": 1, "Food": 1, "Health": 0, "access_score": 3 }, "geometry": { "type": "Point", "coordinates": [ -77.367429815565046, 37.582361048881232 ] } },
{ "type": "Feature", "properties": { "id": 72, "latitude": 37.585920436787937, "longitude": -77.367429815565046, "from_id": 72, "Civic": 0, "Education": 0, "Food": 1, "Health": 0, "access_score": 1 }, "geometry": { "type": "Point", "coordinates": [ -77.367429815565046, 37.585920436787937 ] } },
{ "type": "Feature", "properties": { "id": 73, "latitude": 37.575241762518331, "longitude": -77.362938239144441, "from_id": 73, "Civic": 0, "Education": 1, "Food": 2, "Health": 0, "access_score": 3 }, "geometry": { "type": "Point", "coordinates": [ -77.362938239144441, 37.575241762518331 ] } },
{ "type": "Feature", "properties": { "id": 74, "latitude": 37.578801490789502, "longitude": -77.362938239144441, "from_id": 74, "Civic": 0, "Education": 1, "Food": 1, "Health": 0, "access_score": 2 }, "geometry": { "type": "Point", "coordinates": [ -77.362938239144441, 37.578801490789502 ] } },
{ "type": "Feature", "properties": { "id": 75, "latitude": 37.582361048881232, "longitude": -77.362938239144441, "from_id": 75, "Civic": 0, "Education": 0, "Food": 1, "Health": 0, "access_score": 1 }, "geometry": { "type": "Point", "coordinates": [ -77.362938239144441, 37.582361048881232 ] } },
{ "type": "Feature", "properties": { "id": 76, "latitude": 37.585920436787937, "longitude": -77.362938239144441, "from_id": 76, "Civic": 0, "Education": 0, "Food": 1, "Health": 0, "access_score": 1 }, "geometry": { "type": "Point", "coordinates": [ -77.362938239144441, 37.585920436787937 ] } },
{ "type": "Feature", "properties": { "id": 77, "latitude": 37.575241762518331, "longitude": -77.35844666272385, "from_id": 77, "Civic": 0, "Education": 1, "Food": 1, "Health": 0, "access_score": 2 }, "geometry": { "type": "Point", "coordinates": [ -77.35844666272385, 37.575241762518331 ] } },
{ "type": "Feature", "properties": { "id": 78, "latitude": 37.578801490789502, "longitude": -77.35844666272385, "from_id": 78, "Civic": 0, "Education": 1, "Food": 1, "Health": 0, "access_score": 2 }, "geometry": { "type": "Point", "coordinates": [ -77.35844666272385, 37.578801490789502 ] } },
{ "type": "Feature", "properties": { "id": 79, "latitude": 37.582361048881232, "longitude": -77.35844666272385, "from_id": 79, "Civic": 0, "Education": 0, "Food": 1, "Health": 0, "access_score": 1 }, "geometry": { "type": "Point", "coordinates": [ -77.35844666272385, 37.582361048881232 ] } },
{ "type": "Feature", "properties": { "id": 80, "latitude": 37.575241762518331, "longitude": -77.353955086303245, "from_id": 80, "Civic": 0, "Education": 1, "Food": 1, "Health": 0, "access_score": 2 }, "geometry": { "type": "Point", "coordinates": [ -77.353955086303245, 37.575241762518331 ] } },
{ "type": "Feature", "properties": { "id": 81, "latitude": 37.578801490789502, "longitude": -77.353955086303245, "from_id": 81, "Civic": 0, "Education": 1, "Food": 1, "Health": 0, "access_score": 2 }, "geometry": { "type": "Point", "coordinates": [ -77.353955086303245, 37.578801490789502 ] } },
{ "type": "Feature", "properties": { "id": 82, "latitude": 37.468370808852782, "longitude": -77.344971933462048, "from_id": 82, "Civic": 0, "Education": 0, "Food": 3, "Health": 0, "access_score": 3 }, "geometry": { "type": "Point", "coordinates": [ -77.344971933462048, 37.468370808852782 ] } },
{ "type": "Feature", "properties": { "id": 83, "latitude": 37.457675295745403, "longitude": -77.340480357041443, "from_id": 83, "Civic": 0, "Education": 0, "Food": 8, "Health": 0, "access_score": 8 }, "geometry": { "type": "Point", "coordinates": [ -77.340480357041443, 37.457675295745403 ] } },
{ "type": "Feature", "properties": { "id": 84, "latitude": 37.461240636776019, "longitude": -77.340480357041443, "from_id": 84, "Civic": 0, "Education": 0, "Food": 6, "Health": 0, "access_score": 6 }, "geometry": { "type": "Point", "coordinates": [ -77.340480357041443, 37.461240636776019 ] } },
{ "type": "Feature", "properties": { "id": 85, "latitude": 37.464805807813718, "longitude": -77.340480357041443, "from_id": 85, "Civic": 0, "Education": 0, "Food": 6, "Health": 0, "access_score": 6 }, "geometry": { "type": "Point", "coordinates": [ -77.340480357041443, 37.464805807813718 ] } },
{ "type": "Feature", "properties": { "id": 86, "latitude": 37.468370808852782, "longitude": -77.340480357041443, "from_id": 86, "Civic": 0, "Education": 1, "Food": 6, "Health": 0, "access_score": 7 }, "geometry": { "type": "Point", "coordinates": [ -77.340480357041443, 37.468370808852782 ] } },
{ "type": "Feature", "properties": { "id": 87, "latitude": 37.471935639887519, "longitude": -77.340480357041443, "from_id": 87, "Civic": 0, "Education": 1, "Food": 6, "Health": 0, "access_score": 7 }, "geometry": { "type": "Point", "coordinates": [ -77.340480357041443, 37.471935639887519 ] } },
{ "type": "Feature", "properties": { "id": 88, "latitude": 37.457675295745403, "longitude": -77.335988780620866, "from_id": 88, "Civic": 0, "Education": 0, "Food": 11, "Health": 0, "access_score": 11 }, "geometry": { "type": "Point", "coordinates": [ -77.335988780620866, 37.457675295745403 ] } },
{ "type": "Feature", "properties": { "id": 89, "latitude": 37.461240636776019, "longitude": -77.335988780620866, "from_id": 89, "Civic": 0, "Education": 0, "Food": 4, "Health": 0, "access_score": 4 }, "geometry": { "type": "Point", "coordinates": [ -77.335988780620866, 37.461240636776019 ] } },
{ "type": "Feature", "properties": { "id": 90, "latitude": 37.464805807813718, "longitude": -77.335988780620866, "from_id": 90, "Civic": 0, "Education": 1, "Food": 6, "Health": 0, "access_score": 7 }, "geometry": { "type": "Point", "coordinates": [ -77.335988780620866, 37.464805807813718 ] } },
{ "type": "Feature", "properties": { "id": 91, "latitude": 37.468370808852782, "longitude": -77.335988780620866, "from_id": 91, "Civic": 0, "Education": 1, "Food": 6, "Health": 0, "access_score": 7 }, "geometry": { "type": "Point", "coordinates": [ -77.335988780620866, 37.468370808852782 ] } },
{ "type": "Feature", "properties": { "id": 92, "latitude": 37.471935639887519, "longitude": -77.335988780620866, "from_id": 92, "Civic": 0, "Education": 1, "Food": 6, "Health": 0, "access_score": 7 }, "geometry": { "type": "Point", "coordinates": [ -77.335988780620866, 37.471935639887519 ] } },
{ "type": "Feature", "properties": { "id": 93, "latitude": 37.54319655092916, "longitude": -77.335988780620866, "from_id": 93, "Civic": 0, "Education": 2, "Food": 4, "Health": 0, "access_score": 6 }, "geometry": { "type": "Point", "coordinates": [ -77.335988780620866, 37.54319655092916 ] } },
{ "type": "Feature", "properties": { "id": 94, "latitude": 37.429146448439489, "longitude": -77.331497204200261, "from_id": 94, "Civic": 0, "Education": 1, "Food": 15, "Health": 0, "access_score": 16 }, "geometry": { "type": "Point", "coordinates": [ -77.331497204200261, 37.429146448439489 ] } },
{ "type": "Feature", "properties": { "id": 95, "latitude": 37.429146448439489, "longitude": -77.32700562777967, "from_id": 95, "Civic": 0, "Education": 1, "Food": 5, "Health": 0, "access_score": 6 }, "geometry": { "type": "Point", "coordinates": [ -77.32700562777967, 37.429146448439489 ] } },
{ "type": "Feature", "properties": { "id": 96, "latitude": 37.436279680029479, "longitude": -77.32700562777967, "from_id": 96, "Civic": 0, "Education": 0, "Food": 18, "Health": 0, "access_score": 18 }, "geometry": { "type": "Point", "coordinates": [ -77.32700562777967, 37.436279680029479 ] } },
{ "type": "Feature", "properties": { "id": 97, "latitude": 37.439846040897891, "longitude": -77.32700562777967, "from_id": 97, "Civic": 0, "Education": 0, "Food": 12, "Health": 0, "access_score": 12 }, "geometry": { "type": "Point", "coordinates": [ -77.32700562777967, 37.439846040897891 ] } },
{ "type": "Feature", "properties": { "id": 98, "latitude": 37.450544103728149, "longitude": -77.32700562777967, "from_id": 98, "Civic": 0, "Education": 0, "Food": 13, "Health": 0, "access_score": 13 }, "geometry": { "type": "Point", "coordinates": [ -77.32700562777967, 37.450544103728149 ] } },
{ "type": "Feature", "properties": { "id": 99, "latitude": 37.54319655092916, "longitude": -77.32700562777967, "from_id": 99, "Civic": 0, "Education": 3, "Food": 5, "Health": 0, "access_score": 8 }, "geometry": { "type": "Point", "coordinates": [ -77.32700562777967, 37.54319655092916 ] } },
{ "type": "Feature", "properties": { "id": 100, "latitude": 37.557440568667282, "longitude": -77.32700562777967, "from_id": 100, "Civic": 0, "Education": 0, "Food": 3, "Health": 0, "access_score": 3 }, "geometry": { "type": "Point", "coordinates": [ -77.32700562777967, 37.557440568667282 ] } },
{ "type": "Feature", "properties": { "id": 101, "latitude": 37.429146448439489, "longitude": -77.322514051359065, "from_id": 101, "Civic": 0, "Education": 0, "Food": 12, "Health": 0, "access_score": 12 }, "geometry": { "type": "Point", "coordinates": [ -77.322514051359065, 37.429146448439489 ] } },
{ "type": "Feature", "properties": { "id": 102, "latitude": 37.436279680029479, "longitude": -77.322514051359065, "from_id": 102, "Civic": 0, "Education": 0, "Food": 12, "Health": 0, "access_score": 12 }, "geometry": { "type": "Point", "coordinates": [ -77.322514051359065, 37.436279680029479 ] } },
{ "type": "Feature", "properties": { "id": 103, "latitude": 37.443412231807606, "longitude": -77.322514051359065, "from_id": 103, "Civic": 0, "Education": 0, "Food": 7, "Health": 0, "access_score": 7 }, "geometry": { "type": "Point", "coordinates": [ -77.322514051359065, 37.443412231807606 ] } },
{ "type": "Feature", "properties": { "id": 104, "latitude": 37.425579577729351, "longitude": -77.318022474938473, "from_id": 104, "Civic": 0, "Education": 0, "Food": 1, "Health": 0, "access_score": 1 }, "geometry": { "type": "Point", "coordinates": [ -77.318022474938473, 37.425579577729351 ] } },
{ "type": "Feature", "properties": { "id": 105, "latitude": 37.436279680029479, "longitude": -77.318022474938473, "from_id": 105, "Civic": 0, "Education": 0, "Food": 8, "Health": 0, "access_score": 8 }, "geometry": { "type": "Point", "coordinates": [ -77.318022474938473, 37.436279680029479 ] } },
{ "type": "Feature", "properties": { "id": 106, "latitude": 37.439846040897891, "longitude": -77.318022474938473, "from_id": 106, "Civic": 0, "Education": 0, "Food": 7, "Health": 0, "access_score": 7 }, "geometry": { "type": "Point", "coordinates": [ -77.318022474938473, 37.439846040897891 ] } },
{ "type": "Feature", "properties": { "id": 107, "latitude": 37.407742675256365, "longitude": -77.304547745676672, "from_id": 107, "Civic": 0, "Education": 0, "Food": 1, "Health": 0, "access_score": 1 }, "geometry": { "type": "Point", "coordinates": [ -77.304547745676672, 37.407742675256365 ] } },
{ "type": "Feature", "properties": { "id": 108, "latitude": 37.411310395588153, "longitude": -77.304547745676672, "from_id": 108, "Civic": 0, "Education": 0, "Food": 1, "Health": 0, "access_score": 1 }, "geometry": { "type": "Point", "coordinates": [ -77.304547745676672, 37.411310395588153 ] } },
{ "type": "Feature", "properties": { "id": 109, "latitude": 37.429146448439489, "longitude": -77.304547745676672, "from_id": 109, "Civic": 0, "Education": 0, "Food": 6, "Health": 0, "access_score": 6 }, "geometry": { "type": "Point", "coordinates": [ -77.304547745676672, 37.429146448439489 ] } },
{ "type": "Feature", "properties": { "id": 110, "latitude": 37.436279680029479, "longitude": -77.304547745676672, "from_id": 110, "Civic": 0, "Education": 0, "Food": 6, "Health": 0, "access_score": 6 }, "geometry": { "type": "Point", "coordinates": [ -77.304547745676672, 37.436279680029479 ] } },
{ "type": "Feature", "properties": { "id": 111, "latitude": 37.5147003498979, "longitude": -77.304547745676672, "from_id": 111, "Civic": 1, "Education": 2, "Food": 4, "Health": 0, "access_score": 7 }, "geometry": { "type": "Point", "coordinates": [ -77.304547745676672, 37.5147003498979 ] } },
{ "type": "Feature", "properties": { "id": 112, "latitude": 37.411310395588153, "longitude": -77.300056169256067, "from_id": 112, "Civic": 0, "Education": 0, "Food": 1, "Health": 0, "access_score": 1 }, "geometry": { "type": "Point", "coordinates": [ -77.300056169256067, 37.411310395588153 ] } },
{ "type": "Feature", "properties": { "id": 113, "latitude": 37.432713149208112, "longitude": -77.300056169256067, "from_id": 113, "Civic": 0, "Education": 0, "Food": 1, "Health": 0, "access_score": 1 }, "geometry": { "type": "Point", "coordinates": [ -77.300056169256067, 37.432713149208112 ] } },
{ "type": "Feature", "properties": { "id": 114, "latitude": 37.5147003498979, "longitude": -77.295564592835476, "from_id": 114, "Civic": 1, "Education": 2, "Food": 4, "Health": 0, "access_score": 7 }, "geometry": { "type": "Point", "coordinates": [ -77.295564592835476, 37.5147003498979 ] } },
{ "type": "Feature", "properties": { "id": 115, "latitude": 37.5147003498979, "longitude": -77.29107301641487, "from_id": 115, "Civic": 1, "Education": 2, "Food": 4, "Health": 0, "access_score": 7 }, "geometry": { "type": "Point", "coordinates": [ -77.29107301641487, 37.5147003498979 ] } },
{ "type": "Feature", "properties": { "id": 116, "latitude": 37.468370808852782, "longitude": -77.277598287153097, "from_id": 116, "Civic": 0, "Education": 0, "Food": 1, "Health": 0, "access_score": 1 }, "geometry": { "type": "Point", "coordinates": [ -77.277598287153097, 37.468370808852782 ] } },
{ "type": "Feature", "properties": { "id": 117, "latitude": 37.468370808852782, "longitude": -77.273106710732492, "from_id": 117, "Civic": 0, "Education": 0, "Food": 1, "Health": 0, "access_score": 1 }, "geometry": { "type": "Point", "coordinates": [ -77.273106710732492, 37.468370808852782 ] } },
{ "type": "Feature", "properties": { "id": 118, "latitude": 37.471935639887519, "longitude": -77.273106710732492, "from_id": 118, "Civic": 0, "Education": 0, "Food": 1, "Health": 0, "access_score": 1 }, "geometry": { "type": "Point", "coordinates": [ -77.273106710732492, 37.471935639887519 ] } },
{ "type": "Feature", "properties": { "id": 119, "latitude": 37.393470094915521, "longitude": -77.250648828629494, "from_id": 119, "Civic": 0, "Education": 0, "Food": 4, "Health": 0, "access_score": 4 }, "geometry": { "type": "Point", "coordinates": [ -77.250648828629494, 37.393470094915521 ] } },
{ "type": "Feature", "properties": { "id": 120, "latitude": 37.397038494841297, "longitude": -77.250648828629494, "from_id": 120, "Civic": 0, "Education": 0, "Food": 4, "Health": 0, "access_score": 4 }, "geometry": { "type": "Point", "coordinates": [ -77.250648828629494, 37.397038494841297 ] } },
{ "type": "Feature", "properties": { "id": 121, "latitude": 37.397038494841297, "longitude": -77.246157252208903, "from_id": 121, "Civic": 0, "Education": 0, "Food": 4, "Health": 0, "access_score": 4 }, "geometry": { "type": "Point", "coordinates": [ -77.246157252208903, 37.397038494841297 ] } },
{ "type": "Feature", "properties": { "id": 122, "latitude": 37.400606724877193, "longitude": -77.246157252208903, "from_id": 122, "Civic": 0, "Education": 0, "Food": 3, "Health": 0, "access_score": 3 }, "geometry": { "type": "Point", "coordinates": [ -77.246157252208903, 37.400606724877193 ] } },
{ "type": "Feature", "properties": { "id": 123, "latitude": 37.389901525105643, "longitude": -77.241665675788298, "from_id": 123, "Civic": 0, "Education": 0, "Food": 3, "Health": 0, "access_score": 3 }, "geometry": { "type": "Point", "coordinates": [ -77.241665675788298, 37.389901525105643 ] } },
{ "type": "Feature", "properties": { "id": 124, "latitude": 37.393470094915521, "longitude": -77.241665675788298, "from_id": 124, "Civic": 0, "Education": 0, "Food": 3, "Health": 0, "access_score": 3 }, "geometry": { "type": "Point", "coordinates": [ -77.241665675788298, 37.393470094915521 ] } },
{ "type": "Feature", "properties": { "id": 125, "latitude": 37.397038494841297, "longitude": -77.241665675788298, "from_id": 125, "Civic": 0, "Education": 0, "Food": 1, "Health": 0, "access_score": 1 }, "geometry": { "type": "Point", "coordinates": [ -77.241665675788298, 37.397038494841297 ] } },
{ "type": "Feature", "properties": { "id": 126, "latitude": 37.400606724877193, "longitude": -77.241665675788298, "from_id": 126, "Civic": 0, "Education": 0, "Food": 1, "Health": 0, "access_score": 1 }, "geometry": { "type": "Point", "coordinates": [ -77.241665675788298, 37.400606724877193 ] } },
{ "type": "Feature", "properties": { "id": 127, "latitude": 37.38633278541738, "longitude": -77.237174099367707, "from_id": 127, "Civic": 0, "Education": 0, "Food": 2, "Health": 0, "access_score": 2 }, "geometry": { "type": "Point", "coordinates": [ -77.237174099367707, 37.38633278541738 ] } },
{ "type": "Feature", "properties": { "id": 128, "latitude": 37.389901525105643, "longitude": -77.237174099367707, "from_id": 128, "Civic": 0, "Education": 0, "Food": 2, "Health": 0, "access_score": 2 }, "geometry": { "type": "Point", "coordinates": [ -77.237174099367707, 37.389901525105643 ] } },
{ "type": "Feature", "properties": { "id": 129, "latitude": 37.393470094915521, "longitude": -77.237174099367707, "from_id": 129, "Civic": 0, "Education": 0, "Food": 1, "Health": 0, "access_score": 1 }, "geometry": { "type": "Point", "coordinates": [ -77.237174099367707, 37.393470094915521 ] } },
{ "type": "Feature", "properties": { "id": 130, "latitude": 37.389901525105643, "longitude": -77.232682522947115, "from_id": 130, "Civic": 0, "Education": 0, "Food": 2, "Health": 0, "access_score": 2 }, "geometry": { "type": "Point", "coordinates": [ -77.232682522947115, 37.389901525105643 ] } }
]
}
